[{"OBJECT_NAME":"STARLINK-35890","OBJECT_ID":"2025-280Q","EPOCH":"2026-03-09T22:39:14.243904","MEAN_MOTION":14.983291,"ECCENTRICITY":0.00027531,"INCLINATION":70.0024,"RA_OF_ASC_NODE":333.8241,"ARG_OF_PERICENTER":264.1661,"MEAN_ANOMALY":95.9184,"EPHEMERIS_TYPE":0,"CLASSIFICATION_TYPE":"U","NORAD_CAT_ID":66835,"ELEMENT_SET_NO":999,"REV_AT_EPOCH":1611,"BSTAR":0.00028267663,"MEAN_MOTION_DOT":3.281e-5,"MEAN_MOTION_DDOT":0},{"OBJECT_NAME":"ORBCOMM FM02","OBJECT_ID":"1995-017B","EPOCH":"2026-03-09T15:14:02.878656","MEAN_MOTION":14.96738099,"ECCENTRICITY":0.0008676,"INCLINATION":69.9626,"RA_OF_ASC_NODE":148.0696,"ARG_OF_PERICENTER":276.2558,"MEAN_ANOMALY":83.7611,"EPHEMERIS_TYPE":0,"CLASSIFICATION_TYPE":"U","NORAD_CAT_ID":23546,"ELEMENT_SET_NO":999,"REV_AT_EPOCH":65179,"BSTAR":0.00080978,"MEAN_MOTION_DOT":9.2e-5,"MEAN_MOTION_DDOT":0}]
